[{"OBJECT_NAME":"STARLINK-31132","OBJECT_ID":"2024-011N","EPOCH":"2026-03-09T20:23:49.567200","MEAN_MOTION":15.30186472,"ECCENTRICITY":0.00011845,"INCLINATION":53.1604,"RA_OF_ASC_NODE":282.7891,"ARG_OF_PERICENTER":105.6376,"MEAN_ANOMALY":254.4755,"EPHEMERIS_TYPE":0,"CLASSIFICATION_TYPE":"U","NORAD_CAT_ID":58777,"ELEMENT_SET_NO":999,"REV_AT_EPOCH":12158,"BSTAR":2.538752e-6,"MEAN_MOTION_DOT":-2.84e-6,"MEAN_MOTION_DDOT":0},{"OBJECT_NAME":"SCS-01 B","OBJECT_ID":"2025-100B","EPOCH":"2026-03-09T21:49:11.508672","MEAN_MOTION":15.3317485,"ECCENTRICITY":0.00088698,"INCLINATION":97.3706,"RA_OF_ASC_NODE":145.9041,"ARG_OF_PERICENTER":288.6157,"MEAN_ANOMALY":71.4122,"EPHEMERIS_TYPE":0,"CLASSIFICATION_TYPE":"U","NORAD_CAT_ID":63983,"ELEMENT_SET_NO":999,"REV_AT_EPOCH":4567,"BSTAR":0.00098809397,"MEAN_MOTION_DOT":0.00031724,"MEAN_MOTION_DDOT":0}]
